start=new Date('2023-05-03T00:00:00.000Z').valueOf();
sats=[{"MEAN_MOTION_DOT":"0.00027600","RCS_SIZE":"LARGE","OBJECT_ID":"2020-073S","MEAN_MOTION":"15.06400221","MEAN_MOTION_DDOT":"0.0000000000000","OBJECT_NAME":"STARLINK-1783","NORAD_CAT_ID":"46686","CLASSIFICATION_TYPE":"U","BSTAR":"0.00186450000000","MEAN_ELEMENT_THEORY":"SGP4","REF_FRAME":"TEME","PERIOD":"95.592","DECAY_DATE":null,"LAUNCH_DATE":"2020-10-18","RA_OF_ASC_NODE":"253.9893","MEAN_ANOMALY":"287.5584","COUNTRY_CODE":"US","GP_ID":"231119755","ARG_OF_PERICENTER":"72.5543","TLE_LINE2":"2 46686  53.0536 253.9893 0001264  72.5543 287.5584 15.06400221139870","EPHEMERIS_TYPE":"0","SITE":"AFETR","ECCENTRICITY":"0.00012640","OBJECT_TYPE":"PAYLOAD","APOAPSIS":"548.088","EPOCH":"2023-05-02T18:08:59.174880","PERIAPSIS":"546.338","ELEMENT_SET_NO":"999","INCLINATION":"53.0536","REV_AT_EPOCH":"13987","FILE":"3899277","TLE_LINE1":"1 46686U 20073S   23122.75624045  .00027600  00000-0  18645-2 0  9996","TIME_SYSTEM":"UTC","CENTER_NAME":"EARTH","SEMIMAJOR_AXIS":"6925.348"},{"OBJECT_ID":"2020-073T","MEAN_MOTION":"15.06384331","MEAN_MOTION_DDOT":"0.0000000000000","OBJECT_NAME":"STARLINK-1784","RCS_SIZE":"LARGE","MEAN_MOTION_DOT":"-0.00000365","ARG_OF_PERICENTER":"110.0371","GP_ID":"231120005","TLE_LINE2":"2 46687  53.0541 219.3719 0001551 110.0371 250.0785 15.06384331140352","SITE":"AFETR","EPHEMERIS_TYPE":"0","CLASSIFICATION_TYPE":"U","NORAD_CAT_ID":"46687","MEAN_ELEMENT_THEORY":"SGP4","BSTAR":"-0.00000558080000","REF_FRAME":"TEME","RA_OF_ASC_NODE":"219.3719","DECAY_DATE":null,"LAUNCH_DATE":"2020-10-18","PERIOD":"95.593","MEAN_ANOMALY":"250.0785","COUNTRY_CODE":"US","APOAPSIS":"548.336","EPOCH":"2023-05-02T16:20:55.088160","PERIAPSIS":"546.187","ECCENTRICITY":"0.00015510","OBJECT_TYPE":"PAYLOAD","TIME_SYSTEM":"UTC","CENTER_NAME":"EARTH","SEMIMAJOR_AXIS":"6925.397","ELEMENT_SET_NO":"999","INCLINATION":"53.0541","REV_AT_EPOCH":"14035","FILE":"3899277","TLE_LINE1":"1 46687U 20073T   23122.68119315 -.00000365  00000-0 -55808-5 0  9994"},{"APOAPSIS":"548.048","EPOCH":"2023-05-02T20:07:08.097888","PERIAPSIS":"546.399","ECCENTRICITY":"0.00011910","OBJECT_TYPE":"PAYLOAD","TIME_SYSTEM":"UTC","SEMIMAJOR_AXIS":"6925.358","CENTER_NAME":"EARTH","INCLINATION":"53.0550","REV_AT_EPOCH":"14113","ELEMENT_SET_NO":"999","FILE":"3899277","TLE_LINE1":"1 46689U 20073V   23122.83828817 -.00000110  00000-0  11488-4 0  9999","MEAN_MOTION":"15.06396778","OBJECT_ID":"2020-073V","MEAN_MOTION_DDOT":"0.0000000000000","OBJECT_NAME":"STARLINK-1788","RCS_SIZE":"LARGE","MEAN_MOTION_DOT":"-0.00000110","GP_ID":"231121256","ARG_OF_PERICENTER":"124.6745","TLE_LINE2":"2 46689  53.0550 253.6693 0001191 124.6745 235.4356 15.06396778141138","SITE":"AFETR","EPHEMERIS_TYPE":"0","CLASSIFICATION_TYPE":"U","NORAD_CAT_ID":"46689","REF_FRAME":"TEME","BSTAR":"0.00001148800000","MEAN_ELEMENT_THEORY":"SGP4","MEAN_ANOMALY":"235.4356","RA_OF_ASC_NODE":"253.6693","DECAY_DATE":null,"LAUNCH_DATE":"2020-10-18","PERIOD":"95.592","COUNTRY_CODE":"US"},{"EPOCH":"2023-05-02T18:32:16.589472","APOAPSIS":"548.033","PERIAPSIS":"546.350","OBJECT_TYPE":"PAYLOAD","ECCENTRICITY":"0.00012150","CENTER_NAME":"EARTH","SEMIMAJOR_AXIS":"6925.326","TIME_SYSTEM":"UTC","FILE":"3899277","ELEMENT_SET_NO":"999","INCLINATION":"53.0549","REV_AT_EPOCH":"14022","TLE_LINE1":"1 46690U 20073W   23122.77241423  .00019801  00000-0  13442-2 0  9992","OBJECT_ID":"2020-073W","MEAN_MOTION":"15.06407255","OBJECT_NAME":"STARLINK-1789","MEAN_MOTION_DDOT":"0.0000000000000","RCS_SIZE":"LARGE","MEAN_MOTION_DOT":"0.00019801","ARG_OF_PERICENTER":"71.0666","GP_ID":"231120999","SITE":"AFETR","TLE_LINE2":"2 46690  53.0549 228.9645 0001215  71.0666 289.0455 15.06407255140221","EPHEMERIS_TYPE":"0","BSTAR":"0.00134420000000","MEAN_ELEMENT_THEORY":"SGP4","REF_FRAME":"TEME","NORAD_CAT_ID":"46690","CLASSIFICATION_TYPE":"U","COUNTRY_CODE":"US","DECAY_DATE":null,"PERIOD":"95.592","LAUNCH_DATE":"2020-10-18","RA_OF_ASC_NODE":"228.9645","MEAN_ANOMALY":"289.0455"},{"OBJECT_TYPE":"PAYLOAD","ECCENTRICITY":"0.00011530","PERIAPSIS":"546.405","EPOCH":"2023-05-02T16:55:24.336192","APOAPSIS":"548.002","TLE_LINE1":"1 46691U 20073X   23122.70514278  .00009508  00000-0  65627-3 0  9993","FILE":"3899277","ELEMENT_SET_NO":"999","INCLINATION":"53.0542","REV_AT_EPOCH":"14007","CENTER_NAME":"EARTH","SEMIMAJOR_AXIS":"6925.339","TIME_SYSTEM":"UTC","MEAN_MOTION_DOT":"0.00009508","RCS_SIZE":"LARGE","OBJECT_NAME":"STARLINK-1790","MEAN_MOTION_DDOT":"0.0000000000000","OBJECT_ID":"2020-073X","MEAN_MOTION":"15.06403135","COUNTRY_CODE":"US","LAUNCH_DATE":"2020-10-18","DECAY_DATE":null,"PERIOD":"95.592","RA_OF_ASC_NODE":"239.2675","MEAN_ANOMALY":"276.3757","MEAN_ELEMENT_THEORY":"SGP4","BSTAR":"0.00065627000000","REF_FRAME":"TEME","NORAD_CAT_ID":"46691","CLASSIFICATION_TYPE":"U","TLE_LINE2":"2 46691  53.0542 239.2675 0001153  83.7363 276.3757 15.06403135140078","SITE":"AFETR","EPHEMERIS_TYPE":"0","ARG_OF_PERICENTER":"83.7363","GP_ID":"231120256"},{"NORAD_CAT_ID":"46692","CLASSIFICATION_TYPE":"U","REF_FRAME":"TEME","BSTAR":"0.00184950000000","MEAN_ELEMENT_THEORY":"SGP4","MEAN_ANOMALY":"278.0360","DECAY_DATE":null,"LAUNCH_DATE":"2020-10-18","PERIOD":"95.592","RA_OF_ASC_NODE":"254.0322","COUNTRY_CODE":"US","GP_ID":"231120506","ARG_OF_PERICENTER":"82.0768","TLE_LINE2":"2 46692  53.0533 254.0322 0001228  82.0768 278.0360 15.06409107139877","EPHEMERIS_TYPE":"0","SITE":"AFETR","RCS_SIZE":"LARGE","MEAN_MOTION_DOT":"0.00027381","MEAN_MOTION":"15.06409107","OBJECT_ID":"2020-073Y","MEAN_MOTION_DDOT":"0.0000000000000","OBJECT_NAME":"STARLINK-1791","INCLINATION":"53.0533","REV_AT_EPOCH":"13987","ELEMENT_SET_NO":"999","FILE":"3899277","TLE_LINE1":"1 46692U 20073Y   23122.75719976  .00027381  00000-0  18495-2 0  9990","TIME_SYSTEM":"UTC","SEMIMAJOR_AXIS":"6925.321","CENTER_NAME":"EARTH","ECCENTRICITY":"0.00012280","OBJECT_TYPE":"PAYLOAD","APOAPSIS":"548.036","EPOCH":"2023-05-02T18:10:22.059264","PERIAPSIS":"546.335"},{"TLE_LINE1":"1 46693U 20073Z   23122.70880428  .00000724  00000-0  67524-4 0  9998","FILE":"3899277","ELEMENT_SET_NO":"999","REV_AT_EPOCH":"14007","INCLINATION":"53.0547","CENTER_NAME":"EARTH","SEMIMAJOR_AXIS":"6925.361","TIME_SYSTEM":"UTC","OBJECT_TYPE":"PAYLOAD","ECCENTRICITY":"0.00010750","PERIAPSIS":"546.482","EPOCH":"2023-05-02T17:00:40.689792","APOAPSIS":"547.971","COUNTRY_CODE":"US","DECAY_DATE":null,"RA_OF_ASC_NODE":"239.2470","LAUNCH_DATE":"2020-10-18","PERIOD":"95.592","MEAN_ANOMALY":"254.9292","BSTAR":"0.00006752400000","MEAN_ELEMENT_THEORY":"SGP4","REF_FRAME":"TEME","NORAD_CAT_ID":"46693","CLASSIFICATION_TYPE":"U","TLE_LINE2":"2 46693  53.0547 239.2470 0001075 105.1816 254.9292 15.06395779140073","SITE":"AFETR","EPHEMERIS_TYPE":"0","ARG_OF_PERICENTER":"105.1816","GP_ID":"231120757","MEAN_MOTION_DOT":"0.00000724","RCS_SIZE":"LARGE","OBJECT_NAME":"STARLINK-1792","MEAN_MOTION_DDOT":"0.0000000000000","OBJECT_ID":"2020-073Z","MEAN_MOTION":"15.06395779"},{"ARG_OF_PERICENTER":"90.9386","GP_ID":"231121499","TLE_LINE2":"2 46694  53.0535 219.4428 0001470  90.9386 269.1772 15.06417651140352","SITE":"AFETR","EPHEMERIS_TYPE":"0","REF_FRAME":"TEME","MEAN_ELEMENT_THEORY":"SGP4","BSTAR":"0.00129790000000","CLASSIFICATION_TYPE":"U","NORAD_CAT_ID":"46694","COUNTRY_CODE":"US","MEAN_ANOMALY":"269.1772","RA_OF_ASC_NODE":"219.4428","DECAY_DATE":null,"LAUNCH_DATE":"2020-10-18","PERIOD":"95.591","MEAN_MOTION":"15.06417651","OBJECT_ID":"2020-073AA","OBJECT_NAME":"STARLINK-1793","MEAN_MOTION_DDOT":"0.0000000000000","RCS_SIZE":"LARGE","MEAN_MOTION_DOT":"0.00019113","SEMIMAJOR_AXIS":"6925.294","CENTER_NAME":"EARTH","TIME_SYSTEM":"UTC","FILE":"3899277","INCLINATION":"53.0535","REV_AT_EPOCH":"14035","ELEMENT_SET_NO":"999","TLE_LINE1":"1 46694U 20073AA  23122.66645639  .00019113  00000-0  12979-2 0  9991","EPOCH":"2023-05-02T15:59:41.832096","APOAPSIS":"548.177","PERIAPSIS":"546.141","OBJECT_TYPE":"PAYLOAD","ECCENTRICITY":"0.00014700"},{"TIME_SYSTEM":"UTC","CENTER_NAME":"EARTH","SEMIMAJOR_AXIS":"6925.305","TLE_LINE1":"1 46696U 20073AC  23122.55217504  .00006820  00000-0  47614-3 0  9993","ELEMENT_SET_NO":"999","REV_AT_EPOCH":"14033","INCLINATION":"53.0538","FILE":"3899068","PERIAPSIS":"546.366","APOAPSIS":"547.974","EPOCH":"2023-05-02T13:15:07.923456","ECCENTRICITY":"0.00011610","OBJECT_TYPE":"PAYLOAD","EPHEMERIS_TYPE":"0","TLE_LINE2":"2 46696  53.0538 219.9527 0001161  95.2271 264.8850 15.06414108140331","SITE":"AFETR","ARG_OF_PERICENTER":"95.2271","GP_ID":"231089556","LAUNCH_DATE":"2020-10-18","DECAY_DATE":null,"PERIOD":"95.591","RA_OF_ASC_NODE":"219.9527","MEAN_ANOMALY":"264.8850","COUNTRY_CODE":"US","NORAD_CAT_ID":"46696","CLASSIFICATION_TYPE":"U","MEAN_ELEMENT_THEORY":"SGP4","BSTAR":"0.00047614000000","REF_FRAME":"TEME","MEAN_MOTION_DDOT":"0.0000000000000","OBJECT_NAME":"STARLINK-1795","OBJECT_ID":"2020-073AC","MEAN_MOTION":"15.06414108","MEAN_MOTION_DOT":"0.00006820","RCS_SIZE":"LARGE"},{"TLE_LINE1":"1 46698U 20073AE  23122.74103843  .00018614  00000-0  12650-2 0  9991","INCLINATION":"53.0547","REV_AT_EPOCH":"14008","ELEMENT_SET_NO":"999","FILE":"3899277","TIME_SYSTEM":"UTC","SEMIMAJOR_AXIS":"6925.328","CENTER_NAME":"EARTH","ECCENTRICITY":"0.00012210","OBJECT_TYPE":"PAYLOAD","PERIAPSIS":"546.347","APOAPSIS":"548.039","EPOCH":"2023-05-02T17:47:05.720352","MEAN_ANOMALY":"277.3074","DECAY_DATE":null,"LAUNCH_DATE":"2020-10-18","RA_OF_ASC_NODE":"239.0955","PERIOD":"95.592","COUNTRY_CODE":"US","CLASSIFICATION_TYPE":"U","NORAD_CAT_ID":"46698","REF_FRAME":"TEME","MEAN_ELEMENT_THEORY":"SGP4","BSTAR":"0.00126500000000","TLE_LINE2":"2 46698  53.0547 239.0955 0001221  82.8054 277.3074 15.06406694140089","SITE":"AFETR","EPHEMERIS_TYPE":"0","GP_ID":"231120006","ARG_OF_PERICENTER":"82.8054","RCS_SIZE":"LARGE","MEAN_MOTION_DOT":"0.00018614","MEAN_MOTION_DDOT":"0.0000000000000","OBJECT_NAME":"STARLINK-1797","MEAN_MOTION":"15.06406694","OBJECT_ID":"2020-073AE"}];
